{
  "norad_id": 51143,
  "name": "STARLINK-3184",
  "history": [
    {
      "epoch": "2026-03-28T16:43:46.438464Z",
      "apogee_km": 540.527037844854,
      "perigee_km": 538.947825469596,
      "latitude_deg": 6.8822889889379454e-06,
      "longitude_deg": 146.7346167982892,
      "height_km": 540.6312332180729,
      "semi_major_axis_km": 6917.874431657225,
      "eccentricity": 0.00011414,
      "inclination_deg": 53.2165,
      "raan_deg": 223.7919,
      "arg_perigee_deg": 89.847,
      "mean_anomaly_deg": 270.2653,
      "mean_motion_rev_day": 15.08841949
    },
    {
      "epoch": "2026-03-30T02:06:52.445664Z",
      "apogee_km": 540.5773003442964,
      "perigee_km": 538.9640442751142,
      "latitude_deg": 2.2492022451278796e-05,
      "longitude_deg": -1.6562744165347012,
      "height_km": 540.6777702004542,
      "semi_major_axis_km": 6917.907672309705,
      "eccentricity": 0.0001166,
      "inclination_deg": 53.2166,
      "raan_deg": 217.5471,
      "arg_perigee_deg": 90.7968,
      "mean_anomaly_deg": 269.3158,
      "mean_motion_rev_day": 15.08831074
    },
    {
      "epoch": "2026-03-30T02:06:52.446528Z",
      "apogee_km": 540.5775770606024,
      "perigee_km": 538.9637675588074,
      "latitude_deg": 1.879879902826823e-05,
      "longitude_deg": -1.6562807724619735,
      "height_km": 540.6777740484206,
      "semi_major_axis_km": 6917.907672309705,
      "eccentricity": 0.00011664,
      "inclination_deg": 53.2166,
      "raan_deg": 217.5471,
      "arg_perigee_deg": 90.7968,
      "mean_anomaly_deg": 269.3158,
      "mean_motion_rev_day": 15.08831074
    },
    {
      "epoch": "2026-03-30T14:49:58.061568Z",
      "apogee_km": 540.5639187684828,
      "perigee_km": 538.9793026221168,
      "latitude_deg": -6.19942212496802e-05,
      "longitude_deg": 164.66884477213569,
      "height_km": 540.74579512289,
      "semi_major_axis_km": 6917.908610695299,
      "eccentricity": 0.00011453,
      "inclination_deg": 53.2188,
      "raan_deg": 215.168,
      "arg_perigee_deg": 95.6514,
      "mean_anomaly_deg": 264.4608,
      "mean_motion_rev_day": 15.08830767
    },
    {
      "epoch": "2026-03-31T14:40:44.941728Z",
      "apogee_km": 540.5519198562961,
      "perigee_km": 538.9594209635679,
      "latitude_deg": 2.3861498376354163e-05,
      "longitude_deg": 161.53524087999,
      "height_km": 540.5971846894597,
      "semi_major_axis_km": 6917.892670409932,
      "eccentricity": 0.0001151,
      "inclination_deg": 53.2176,
      "raan_deg": 210.709,
      "arg_perigee_deg": 86.0753,
      "mean_anomaly_deg": 274.0371,
      "mean_motion_rev_day": 15.08835982
    },
    {
      "epoch": "2026-04-01T14:31:32.729952Z",
      "apogee_km": 540.5628244712434,
      "perigee_km": 539.0021418358447,
      "latitude_deg": -1.6419949787931128e-05,
      "longitude_deg": 158.39574923681516,
      "height_km": 540.6390641880537,
      "semi_major_axis_km": 6917.919483153544,
      "eccentricity": 0.0001128,
      "inclination_deg": 53.2169,
      "raan_deg": 206.248,
      "arg_perigee_deg": 87.1066,
      "mean_anomaly_deg": 273.0055,
      "mean_motion_rev_day": 15.0882721
    },
    {
      "epoch": "2026-04-02T14:22:18.871392Z",
      "apogee_km": 540.5754507278634,
      "perigee_km": 538.8818188631531,
      "latitude_deg": 4.9662118038235734e-05,
      "longitude_deg": 155.2654166757644,
      "height_km": 540.6450901928081,
      "semi_major_axis_km": 6917.865634795508,
      "eccentricity": 0.00012241,
      "inclination_deg": 53.2185,
      "raan_deg": 201.7892,
      "arg_perigee_deg": 91.3838,
      "mean_anomaly_deg": 268.7295,
      "mean_motion_rev_day": 15.08844827
    },
    {
      "epoch": "2026-04-03T15:48:30.394368Z",
      "apogee_km": 540.6714041836085,
      "perigee_km": 538.8810482406643,
      "latitude_deg": 5.359740568067153e-07,
      "longitude_deg": 127.91492664327144,
      "height_km": 540.6062985438202,
      "semi_major_axis_km": 6917.913226212136,
      "eccentricity": 0.0001294,
      "inclination_deg": 53.2176,
      "raan_deg": 197.0314,
      "arg_perigee_deg": 85.788,
      "mean_anomaly_deg": 274.326,
      "mean_motion_rev_day": 15.08829257
    },
    {
      "epoch": "2026-04-04T06:06:58.860288Z",
      "apogee_km": 540.693537884441,
      "perigee_km": 538.9077414621361,
      "latitude_deg": -4.363967665077714e-05,
      "longitude_deg": -89.96931934097296,
      "height_km": 540.535318107657,
      "semi_major_axis_km": 6917.937639673288,
      "eccentricity": 0.00012907,
      "inclination_deg": 53.2159,
      "raan_deg": 194.3534,
      "arg_perigee_deg": 79.6124,
      "mean_anomaly_deg": 280.5013,
      "mean_motion_rev_day": 15.0882127
    },
    {
      "epoch": "2026-04-05T13:54:41.635584Z",
      "apogee_km": 540.7855344664295,
      "perigee_km": 538.7668873914799,
      "latitude_deg": -2.56005446107317e-05,
      "longitude_deg": 145.85087883112635,
      "height_km": 540.670047610049,
      "semi_major_axis_km": 6917.913210928955,
      "eccentricity": 0.0001459,
      "inclination_deg": 53.2176,
      "raan_deg": 188.4076,
      "arg_perigee_deg": 89.9005,
      "mean_anomaly_deg": 270.2154,
      "mean_motion_rev_day": 15.08829262
    },
    {
      "epoch": "2026-04-05T13:54:41.636448Z",
      "apogee_km": 540.7858803620902,
      "perigee_km": 538.7665414958201,
      "latitude_deg": 5.037437564486209e-05,
      "longitude_deg": 145.85093170981708,
      "height_km": 540.6700347923404,
      "semi_major_axis_km": 6917.913210928955,
      "eccentricity": 0.00014595,
      "inclination_deg": 53.2176,
      "raan_deg": 188.4076,
      "arg_perigee_deg": 89.9005,
      "mean_anomaly_deg": 270.2155,
      "mean_motion_rev_day": 15.08829262
    }
  ]
}